NORAD_CAT_ID,OBJECT_NAME,OBJECT_TYPE,EPOCH,MEAN_MOTION,ECCENTRICITY,INCLINATION,RA_OF_ASC_NODE,ARG_OF_PERICENTER,MEAN_ANOMALY,BSTAR,MEAN_MOTION_DOT,MEAN_MOTION_DDOT,TLE_LINE0,TLE_LINE1,TLE_LINE2,SEMIMAJOR_AXIS,PERIOD,APOGEE,PERIGEE,DECAYED
52371.0,STARLINK-3798,PAYLOAD,2024-08-18 07:05:55,15.08849679,0.0001363,53.2142,220.752,96.9882,263.1265,9.6817e-05,1.254e-05,0.0,0 STARLINK-3798,1 52371U 22045AS  24231.29578621  .00001254  00000-0  96817-4 0  9990,2 52371  53.2142 220.7520 0001363  96.9882 263.1265 15.08849679130107,6917.851,95.437,540.659,538.773,0.0
52371.0,STARLINK-3798,PAYLOAD,2024-08-19 05:21:20,15.08839658,0.0001406,53.2151,216.5863,108.9831,251.1314,5.516e-05,5.9e-06,0.0,0 STARLINK-3798,1 52371U 22045AS  24232.22315241  .00000590  00000-0  55160-4 0  9999,2 52371  53.2151 216.5863 0001406 108.9831 251.1314 15.08839658130249,6917.881,95.438,540.719,538.774,0.0
52371.0,STARLINK-3798,PAYLOAD,2024-08-20 08:22:53,15.08847378,0.0001414,53.2151,211.5308,89.7931,270.3223,0.00020634,2.998e-05,0.0,0 STARLINK-3798,1 52371U 22045AS  24233.34922978  .00002998  00000-0  20634-3 0  9995,2 52371  53.2151 211.5308 0001414  89.7931 270.3223 15.08847378130413,6917.858,95.437,540.701,538.745,0.0
52371.0,STARLINK-3798,PAYLOAD,2024-08-21 05:02:54,15.08843167,0.0001435,53.2154,207.6629,94.6951,265.4205,0.00015863,2.238e-05,0.0,0 STARLINK-3798,1 52371U 22045AS  24234.21035157  .00002238  00000-0  15863-3 0  9991,2 52371  53.2154 207.6629 0001435  94.6951 265.4205 15.08843167130549,6917.871,95.437,540.728,538.743,0.0
52371.0,STARLINK-3798,PAYLOAD,2024-08-21 22:32:09,15.08839281,0.000145,53.2152,204.3961,92.2476,267.8682,-2.1494e-06,-3.22e-06,0.0,0 STARLINK-3798,1 52371U 22045AS  24234.93899435 -.00000322  00000-0 -21494-5 0  9990,2 52371  53.2152 204.3961 0001450  92.2476 267.8682 15.08839281130652,6917.883,95.438,540.751,538.744,0.0
